HELIOS 1B               
1 25977U 99064A   20216.40011121  .00000013  00000-0  87650-5 0  9994
2 25977  98.2865  12.9338 0001647 140.8918 219.2413 14.82487601113373
TERRA                   
1 25994U 99068A   20216.48375230  .00000026  00000-0  15821-4 0  9993
2 25994  98.2120 290.1119 0001271 104.1654 255.9688 14.57112027 97164
SL-16 R/B               
1 26070U 00006B   20215.80870112 -.00000065  00000-0 -88736-5 0  9998
2 26070  71.0008  75.8461 0014870  48.9341 311.3063 14.15464494 59196
MTI                     
1 26102U 00014A   20216.24801027  .00003347  00000-0  49424-4 0  9995
2 26102  97.4973 100.7568 0009184  61.3056 298.9117 15.56101656131796
TITAN 4B R/B            
1 26474U 00047B   20216.52198092  .00000054  00000-0  15658-4 0  9999
2 26474  67.9946 306.1310 0053381 150.2462 210.1735 14.95973183 86362
ENVISAT                 
1 27386U 02009A   20216.54022597  .00000012  00000-0  17271-4 0  9997
2 27386  98.1362 221.1133 0001419  89.1473  20.0850 14.37987783965380
IDEFIX & ARIANE 42P R/B 
1 27422U 02021B   20215.79886520 -.00000028  00000-0  53687-5 0  9992
2 27422  98.3540 174.9562 0013466  93.1644 267.1080 14.29291535949893
AQUA                    
1 27424U 02022A   20215.82685355  .00000043  00000-0  19507-4 0  9990
2 27424  98.2104 155.7957 0001313 137.8783 276.1189 14.57112381970675
CZ-4B R/B               
1 27432U 02024C   20216.03835703 -.00000027  00000-0  99697-5 0  9991
2 27432  99.0884 219.0227 0051228  45.7993  21.6041 14.14095575940318
MIDORI II (ADEOS-II)    
1 27597U 02056A   20216.43038586  .00000010  00000-0  21519-4 0  9994
2 27597  98.5219 162.8427 0000930 132.8085 227.3174 14.27454494918519
H-2A R/B                
1 27601U 02056E   20215.72318396  .00000039  00000-0  28815-4 0  9998
2 27601  98.2232 249.1091 0073038 139.1513 332.2427 14.31961195921313
CZ-4B R/B               
1 28059U 03049C   20215.74974211 -.00000003  00000-0  11102-4 0  9998
2 28059  98.4837 132.8011 0050152 358.5177   1.5862 14.52605753889533
CZ-2C R/B               
1 28222U 04012C   20216.42953639  .00000103  00000-0  10313-4 0  9991
2 28222  97.6804 179.1075 0045827 228.1923 245.1068 15.10429497893126
SL-16 R/B               
1 28353U 04021B   20215.39420016 -.00000273  00000-0 -11788-3 0  9995
2 28353  70.9992 202.9746 0007664 267.4090  92.6155 14.14234193833644
CZ-4B R/B               
1 28415U 04035C   20215.65310779  .00000343  00000-0  26630-4 0  9991
2 28415  97.6106 256.7165 0051238 193.2484 166.7401 15.06885304870597
CZ-2C R/B               
1 28480U 04046B   20215.67387748 -.00000002  00000-0  13916-4 0  9993
2 28480  98.0756 247.0323 0143208  88.2924  20.4597 14.25726469817000
ARIANE 5 R/B            
1 28499U 04049H   20215.82925231  .00000031  00000-0  11023-4 0  9996
2 28499  98.0578 317.7576 0093345 122.9760 349.1110 14.80038271842993
CZ-2D R/B               
1 28738U 05024B   20215.63882414  .00000233  00000-0  17170-4 0  9993
2 28738  97.3808 236.6773 0012729  31.3510 328.8477 15.12070097828383
SUZAKU (ASTRO-EII)      
1 28773U 05025A   20215.78612171  .00000760  00000-0  32533-4 0  9995
2 28773  31.3827  75.3819 0004658 311.1011  48.9234 15.17614789831008
ALOS (DAICHI)           
1 28931U 06002A   20216.47957231  .00000077  00000-0  23797-4 0  9996
2 28931  97.8476 199.9129 0001206  27.1752 332.9508 14.62726994774579
H-2A R/B                
1 28932U 06002B   20215.98429249  .00000004  00000-0  68646-5 0  9998
2 28932  98.3237 208.6421 0088907 168.4629 249.9406 14.92252631788191
AKARI (ASTRO-F)         
1 28939U 06005A   20215.48972152  .00001525  00000-0  42621-4 0  9992
2 28939  98.2350 194.8989 0093268 162.2537 198.1999 15.34440989787973
RESURS-DK 1             
1 29228U 06021A   20216.01560306  .00000043  00000-0  10575-4 0  9993
2 29228  69.9356  69.4665 0004168 349.7028  10.4047 15.02555111779747
GENESIS 1               
1 29252U 06029A   20215.25760684  .00000217  00000-0  20401-4 0  9996
2 29252  64.5239 151.7684 0002889 145.0268 215.1045 15.18180618775136
CZ-4B R/B               
1 29507U 06046C   20216.03313531 -.00000599  00000-0 -41318-4 0  9995
2 29507  97.7533 237.8337 0046273   9.4946 350.7142 15.00644910752406
CZ-2C R/B               
1 31114U 07010B   20216.11453947 -.00000067  00000-0 -13101-4 0  9998
2 31114  98.2571  65.8462 0060530 130.3694 230.2790 14.19325583689642
COSMO-SKYMED 1          
1 31598U 07023A   20216.46515703 -.00000071  00000-0 -23512-5 0  9998
2 31598  97.8861  38.9416 0001444  92.3741 267.7693 14.82155758711798
GENESIS 2               
1 31789U 07028A   20215.36938630  .00000093  00000-0  15047-4 0  9996
2 31789  64.5016 193.0791 0039741 236.4273 123.3053 15.17299567722137
COSMOS 2428             
1 31792U 07029A   20216.31143288 -.00000359  00000-0 -16878-3 0  9993
2 31792  70.9073 174.5644 0010080 348.1102  11.9779 14.12308234675481
SL-16 R/B               
1 31793U 07029B   20216.09734769  .00000002  00000-0  26133-4 0  9998
2 31793  70.9754 148.3803 0002380 258.5524 187.9519 14.14428567676324
KORONAS-FOTON           
1 33504U 09003A   20215.71498729  .00000563  00000-0  27721-4 0  9991
2 33504  82.4428 176.7936 0020559 116.7513 243.5826 15.15671068634495
H-2A R/B                
1 38341U 12025E   20216.44304560  .00000112  00000-0  20621-4 0  9995
2 38341  98.5055  14.5143 0056770  81.2432 279.5204 14.84053666444426
CUSAT 2 & FALCON 9 R/B  
1 39271U 13055G   20216.51826372  .00009189  00000-0  21917-3 0  9991
2 39271  80.9635 216.3781 0587274  28.7918 334.4379 14.48495917357540
SL-4 R/B                
1 39679U 14021B   20215.48608293 -.00000052  00000-0  16103-4 0  9995
2 39679  51.6144 253.7890 0172317 105.2574 256.7517 15.06451855345966
ALOS-2                  
1 39766U 14029A   20216.51596087  .00000030  00000-0  10919-4 0  9996
2 39766  97.9227 312.4397 0001520  88.4915 271.6458 14.79472709334655
CZ-2C R/B               
1 40306U 14071B   20216.39405689  .00003089  00000-0  66691-4 0  9993
2 40306  97.3270 163.3333 0015446   2.2222 357.9093 15.45222962321128
SL-27 R/B               
1 40354U 14084B   20216.48770409  .00000690  00000-0  18062-4 0  9999
2 40354  74.7382 290.7867 0036105  95.9874 264.5454 15.40285381315775
YAOGAN 29               
1 41038U 15069A   20216.41240497  .00000020  00000-0  94746-5 0  9996
2 41038  98.0129 204.3123 0002264  91.8811 268.2665 14.80454433253229
ASTRO-H (HITOMI)        
1 41337U 16012A   20216.02032261  .00000196  00000-0  89196-5 0  9999
2 41337  31.0062  74.5031 0012419 172.0732 188.0101 14.98695811244495
SHENZHOU-11 MODULE      
1 41868U 16061G   20215.91028124  .00064858  10264-4  10553-3 0  9993
2 41868  42.7833 205.1081 0013048 136.5529 306.5347 16.02894580213513
HXMT (HUIYAN)           
1 42758U 17034A   20216.50916667  .00000022  00000-0  15100-4 0  9997
2 42758  43.0175 137.8476 0012005 320.0848  21.6453 15.08858422172977
CZ-2C R/B               
1 43521U 18054D   20215.46473648  .00000282  00000-0  17445-4 0  9992
2 43521  35.1527 256.3967 0082545 163.9263 196.4095 15.11030358116113
AEOLUS                  
1 43600U 18066A   20216.46658250  .00028460  00000-0  11245-3 0  9997
2 43600  96.7179 222.1555 0004964  91.0899 269.0942 15.86753135112825
SAOCOM 1A               
1 43641U 18076A   20216.40587921  .00000012  00000-0  80499-5 0  9995
2 43641  97.8899  41.8478 0001428  81.0682 279.0695 14.82152899 98556
CREW DRAGON DEMO-1 DEB  
1 44064U 19011B   20215.81409260  .00013781  00000-0  13801-3 0  9996
2 44064  51.6344  77.3884 0002789 218.9781 141.1014 15.65869206 80178
